HST                     
1 20580U 90037B   26127.97667409  .00005999  00000+0  19110-3 0  9996
2 20580  28.4762 355.2958 0002157  58.4789 301.6018 15.30319964782400
POLAR                   
1 23802U 96013A   26127.21500419  .00000085  00000+0  00000+0 0  9995
2 23802  79.8127 227.5283 6429535 210.4870  87.3577  1.29845918144324
SWAS                    
1 25560U 98071A   26127.99033361  .00002630  00000+0  17086-3 0  9990
2 25560  69.8967 331.1572 0007988 298.3907  61.6451 15.09345533491204
CXO                     
1 25867U 99040B   26129.70737146  .00000792  00000+0  00000+0 0  9991
2 25867  55.5364 117.7999 7900392 310.4423   0.0547  0.37799268 17171
XMM-NEWTON              
1 25989U 99066A   26129.45509902  .00000108  00000+0  00000+0 0  9994
2 25989  64.6913 283.4821 4687036  65.5825   0.1657  0.50127500 22808
TERRA                   
1 25994U 99068A   26128.23108971  .00000308  00000+0  71645-4 0  9998
2 25994  97.9486 179.3555 0002479  30.0786  43.1381 14.61071115403773
CLUSTER II-FM7 (SAMBA)  
1 26410U 00041A   26130.20719946  .00003007  00000+0  00000+0 0  9996
2 26410 149.7574  44.0320 9007788 260.7661   0.4598  0.44818912 20131
CLUSTER II-FM8 (TANGO)  
1 26464U 00045B   26130.14160082  .00003120  00000+0  00000+0 0  9999
2 26464 150.0346  45.1293 9013438 261.7017   0.4740  0.44409144 20129
ODIN                    
1 26702U 01007A   26128.06277725  .00089502  00000+0  89431-3 0  9991
2 26702  97.3936 166.7687 0001025 221.1716 138.9467 15.65322783383100
TIMED                   
1 26998U 01055B   26128.26525604  .00000988  00000+0  93447-4 0  9999
2 26998  74.0672 315.3970 0001174 193.1904 166.9250 14.95197305324855
CORIOLIS                
1 27640U 03001A   26128.24338156  .00000087  00000+0  61454-4 0  9992
2 27640  98.7139 135.7369 0013391 332.5129  27.5338 14.19933722208553
SORCE                   
1 27651U 03004A   26128.28816908  .00002051  00000+0  15840-3 0  9997
2 27651  39.9893 129.2751 0016223 128.7300 231.4947 15.03492525265892
MOST                    
1 27843U 03031D   26128.29623982  .00000052  00000+0  43915-4 0  9993
2 27843  98.7057 136.5776 0010085  14.5062 345.6403 14.21314117185047
SCISAT 1                
1 27858U 03036A   26127.84231541  .00000614  00000+0  83154-4 0  9993
2 27858  73.9301 251.4971 0008112 317.8045  42.2506 14.81404749225475
SWIFT                   
1 28485U 04047A   26128.19225800  .00041515  00000+0  39904-3 0  9991
2 28485  20.5519 132.4984 0002798 126.0369 234.0336 15.64693075180584
HINODE (SOLAR-B)        
1 29479U 06041A   26128.05490820  .00000613  00000+0  11386-3 0  9990
2 29479  98.0568 144.7976 0018710  58.3890 301.9139 14.68565174 48989
SHIJIAN-6 02A (SJ-6 02A)
1 29505U 06046A   26128.24288506  .00003106  00000+0  16308-3 0  9991
2 29505  97.6393 169.0175 0001430 281.8086  78.2986 15.16487941 66211
SHIJIAN-6 02B (SJ-6 02B)
1 29506U 06046B   26128.28984522  .00001656  00000+0  13341-3 0  9999
2 29506  97.7149 157.5970 0011206 192.3769 167.7181 15.01261852 64756
FGRST (GLAST)           
1 33053U 08029A   26128.28380101  .00002339  00000+0  80984-4 0  9994
2 33053  25.5812 121.4990 0007994 213.0072 146.9967 15.23729213989743
SDO                     
1 36395U 10005A   26128.10164551 -.00000052  00000+0  00000+0 0  9990
2 36395  34.5694  86.9480 0000905  35.7853  37.9951  1.00272625 59664
CRYOSAT 2               
1 36508U 10013A   26128.24564548  .00000087  00000+0  20833-4 0  9998
2 36508  92.0309 267.6035 0002640  88.3359 271.8151 14.51897331852286
X-SAT                   
1 37389U 11015C   26128.20828731  .00000281  00000+0  13687-3 0  9996
2 37389  98.3499 107.1431 0015271  98.8547 261.4363 14.25194688781984
GCOM-W1 (SHIZUKU)       
1 38337U 12025A   26128.29218502  .00000409  00000+0  10092-3 0  9999
2 38337  98.2003  69.4578 0001483 102.2518  59.9401 14.57086803743220
NUSTAR                  
1 38358U 12031A   26128.25002315  .00011037  00000+0  63341-3 0  9992
2 38358   6.0289 333.6247 0009323 240.1742 158.1669 15.08430654  1305
NEOSSAT                 
1 39089U 13009D   26128.06991618  .00000131  00000+0  60048-4 0  9997
2 39089  98.4172 309.0583 0011196  12.5688 347.5776 14.35812535690986
BRITE-AUSTRIA           
1 39091U 13009F   26128.22776985  .00000147  00000+0  64750-4 0  9997
2 39091  98.3988 308.6546 0010246   6.6696 353.4625 14.36526050691317
IRIS                    
1 39197U 13033A   26128.09581078  .00000900  00000+0  10932-3 0  9992
2 39197  97.9358 327.4958 0025920  90.2061 270.2124 14.85802867694428
HISAKI (SPRINT-A)       
1 39253U 13049A   26128.13765495  .00000115  00000+0  71717-4 0  9991
2 39253  29.7198  63.6204 0136591  52.2375 309.0485 13.55539568625989
CASSIOPE                
1 39265U 13055A   26128.23055336  .00025505 -52976-6  29273-3 0  9994
2 39265  80.9135 115.1217 0301632 196.3951 162.7366 15.22374231661587
STSAT-3                 
1 39422U 13066G   26128.22408416  .00001638  00000+0  12770-3 0  9999
2 39422  97.6177  98.7850 0010057 155.0818 205.0894 15.02515179678204
SWARM B                 
1 39451U 13067A   26128.26111765  .00002532  00000+0  90567-4 0  9999
2 39451  87.7462 354.4440 0002641 100.0888 260.0660 15.28318690677148
SWARM A                 
1 39452U 13067B   26128.26941471  .00009503  00000+0  16806-3 0  9993
2 39452  87.3323  71.0559 0003551  87.9887 272.1780 15.50142738700065
SWARM C                 
1 39453U 13067C   26128.26934152  .00009525  00000+0  16844-3 0  9998
2 39453  87.3324  69.6371 0003545  87.6642 272.5025 15.50144591700022
BRITE-CA1 (TORONTO)     
1 40020U 14033L   26128.28969603  .00000696  00000+0  11196-3 0  9990
2 40020  97.9681 257.9680 0079599  45.4275 315.3394 14.72622201636348
OCO 2                   
1 40059U 14035A   26128.25797075  .00000366  00000+0  91308-4 0  9991
2 40059  98.1999  70.1651 0001328  88.0577 272.0774 14.57077810630237
BRITE-PL2 (HEWELIUSZ)   
1 40119U 14049B   26128.26849611  .00001811  00000+0  17329-3 0  9994
2 40119  97.9053 239.9756 0012818 238.8845 121.1118 14.94446978635486
MMS 1                   
1 40482U 15011A   26128.33335648 -.00000439  00000+0  00000+0 0  9995
2 40482  71.6048 349.3186 8359067 166.4470 193.3849  0.28363435  1389
MMS 2                   
1 40483U 15011B   26128.33335648 -.00000439  00000+0  00000+0 0  9996
2 40483  71.6050 349.3208 8359828 166.4528 193.3716  0.28363451  1388
MMS 3                   
1 40484U 15011C   26128.33335648 -.00000439  00000+0  00000+0 0  9997
2 40484  71.6078 349.3254 8359051 166.4471 193.3720  0.28363411  1386
MMS 4                   
1 40485U 15011D   26128.33335648 -.00000439  00000+0  00000+0 0  9998
2 40485  71.6047 349.3209 8358614 166.4548 193.3599  0.28363402  1386
ASTROSAT                
1 40930U 15052A   26128.19729039  .00001463  00000+0  96568-4 0  9999
2 40930   5.9970  83.1701 0007999 187.2512 172.7500 14.82438087573886
DAMPE                   
1 41173U 15078A   26128.29245446  .00001027  00000+0  37215-4 0  9993
2 41173  97.4572 133.5664 0010858 211.0989 148.9610 15.30685519578442
PISAT                   
1 41784U 16059B   26127.95487117  .00000859  00000+0  15410-3 0  9990
2 41784  97.8184 130.1387 0028419 336.9899  23.0032 14.68912376513834
HXMT (HUIYAN)           
1 42758U 17034A   26128.26734881  .00003830  00000+0  19339-3 0  9990
2 42758  43.0151  45.2608 0032975 252.7744 106.9494 15.18116596491598
FLYING LAPTOP           
1 42831U 17042G   26128.32049988  .00002253  00000+0  18099-3 0  9995
2 42831  97.4516 285.4378 0017675 259.4047 100.5186 15.00885029480478
ZHANGHENG 1-01 (CSES-1) 
1 43194U 18015C   26128.26700623  .00006069  00000+0  27710-3 0  9991
2 43194  97.6847 293.1378 0017340  46.2110 314.0556 15.20851682458577
SALSAT                  
1 46495U 20068K   26128.23746321  .00006235  00000+0  22249-3 0  9998
2 46495  97.8867 128.8907 0011668  84.9027 275.3543 15.29213995309256
IXPE                    
1 49954U 21121A   26128.25002315  .00010593  00000+0  57901-3 0  9997
2 49954   0.2303 260.0086 0006803 196.2091 208.1942 15.09891088  5288
